OBJECT_NAME,OBJECT_ID,EPOCH,MEAN_MOTION,ECCENTRICITY,INCLINATION,RA_OF_ASC_NODE,ARG_OF_PERICENTER,MEAN_ANOMALY,EPHEMERIS_TYPE,CLASSIFICATION_TYPE,NORAD_CAT_ID,ELEMENT_SET_NO,REV_AT_EPOCH,BSTAR,MEAN_MOTION_DOT,MEAN_MOTION_DDOT
GS-1,2023-060C,2026-06-02T17:29:49.430976,1.00278618,.00040182,2.6897,79.9972,279.1394,243.6560,0,U,56372,999,739,0,-.212E-5,0
BEIDOU-3 G4,2023-066A,2026-06-05T21:01:38.920224,1.00268094,.0004424,0.5005,328.5318,168.4492,212.7424,0,U,56564,999,1128,0,-.269E-5,0
ARABSAT-7B (BADR-8),2023-075A,2026-06-05T15:21:06.850368,1.00272024,.0004934,0.0749,26.6091,356.9344,126.8188,0,U,56757,999,1100,0,.157E-5,0
NVS-01 (IRNSS-1J),2023-076A,2026-06-05T14:07:58.570176,1.00271424,.0002898,2.1941,244.8789,42.7691,307.9658,0,U,56759,999,1099,0,-.323E-5,0
NUSANTARA TIGA (SATRIA),2023-086A,2026-06-05T17:38:01.084128,1.00269213,.0003568,0.0379,343.7809,1.5282,319.3542,0,U,57045,999,964,0,-.222E-5,0
H2SAT (HEINRICH HERTZ),2023-093A,2026-06-04T03:17:58.373952,1.00272490,.00009749,0.0448,123.4904,332.0680,207.2004,0,U,57213,999,1078,0,.14E-6,0
SYRACUSE 4B,2023-093B,2026-06-05T18:37:10.931808,1.00274225,.000022,0.0174,10.2428,144.0914,12.7461,0,U,57214,999,685,0,-.4E-6,0
JUPITER 3 (ECHOSTAR 24),2023-108A,2026-06-04T13:28:56.229024,1.00269922,.0001202,0.0197,333.9788,99.7783,286.2561,0,U,57479,999,1052,0,0,0
GALAXY 37 (G-37),2023-112A,2026-06-05T16:20:09.151008,1.00271269,.0002153,0.0168,322.4830,112.6420,297.0301,0,U,57493,999,1042,0,.61E-6,0
LUDI TANCE-4 01A,2023-120A,2026-06-05T14:06:14.681952,1.00271875,.0000804,15.1089,194.2573,79.8156,281.2254,0,U,57624,999,1043,0,-.165E-5,0
TJS-10,2023-169A,2026-06-05T17:17:56.822784,1.00268972,.0003866,2.5143,80.6266,97.4341,68.0041,0,U,58204,999,942,0,-.236E-5,0
ZHONGXING-6E,2023-172A,2026-06-05T20:54:39.589920,1.00268095,.0002565,0.0137,347.4782,93.2233,242.8045,0,U,58253,999,954,0,0,0
YAOGAN-41,2023-197A,2026-06-05T07:15:29.029248,1.00277565,.0014164,3.1509,312.9485,192.1434,340.6332,0,U,58582,999,920,0,-.351E-5,0
OVZON-3,2024-003A,2026-06-05T19:36:34.497216,1.00271758,.0000363,0.0026,267.5956,215.2734,125.2237,0,U,58698,999,733,0,.64E-6,0
INSAT-3DS,2024-033A,2026-06-05T19:13:25.974048,1.00274104,.0001377,0.0087,295.5337,136.8106,192.3090,0,U,58990,999,4695,0,-.144E-5,0
MERAH PUTIH 2,2024-035A,2026-06-05T19:11:11.349024,1.00274141,.0001472,0.0152,289.3374,139.0774,226.5692,0,U,58995,999,847,0,-.345E-5,0
TJS-11,2024-037A,2026-06-05T21:56:00.700800,1.00069539,.0004093,4.2128,326.9148,138.4213,231.4378,0,U,59020,999,847,0,-.339E-5,0
HULIANWAN GAOGUI-01 (HG-01),2024-040A,2026-06-05T13:40:35.685408,1.00271733,.0003291,0.0677,327.4744,75.0933,90.2044,0,U,59069,999,721,0,.168E-5,0
EUTELSAT 36D,2024-059A,2026-06-05T13:41:13.125120,1.00272077,.0000458,0.0158,8.3491,124.5762,2.2583,0,U,59346,999,803,0,.168E-5,0
PAKSAT-MM1,2024-104A,2026-06-03T15:29:55.900032,1.00274914,.00020461,0.0154,42.0049,27.2826,93.4750,0,U,59915,999,739,0,.165E-5,0
ASTRA 1P (SES-24),2024-115A,2026-06-05T18:44:32.726976,1.00270482,.000073,0.0643,14.2112,359.6761,180.6635,0,U,60086,999,708,0,.132E-5,0
GOES 19,2024-119A,2026-06-05T14:52:02.136288,1.00270243,.0000653,0.0379,148.5040,341.6240,271.7430,0,U,60133,999,684,0,-.236E-5,0
ZHONGXING-3A,2024-122A,2026-06-05T08:52:03.200736,1.00273621,.0001356,0.0447,110.7697,342.1643,35.4546,0,U,60179,999,719,0,-.301E-5,0
TURKSAT 6A,2024-127A,2026-06-05T18:51:01.004256,1.00271578,.000169,0.0466,164.1610,318.1642,96.6430,0,U,60233,999,690,0,.159E-5,0
HULIANWAN GAOGUI-02 (HG-02),2024-135A,2026-06-05T05:41:28.170240,1.00271173,.0007984,0.0419,353.0776,15.1546,124.0045,0,U,60327,999,738,0,-.16E-5,0
ZHONGXING-4A,2024-151A,2026-06-05T19:12:41.205024,1.00271859,.0000576,1.3444,270.9723,190.6097,199.0536,0,U,60606,999,664,0,-.35E-5,0
HULIANWAN GAOGUI-03 (HG-03),2024-181A,2026-06-05T14:51:39.672288,1.00270862,.0001491,0.0446,357.1622,106.3545,296.3114,0,U,61503,999,670,0,-.229E-5,0
DSN-3 (KIRAMEKI-3),2024-198A,2026-06-05T19:20:10.489344,1.00271520,.0000859,0.0252,280.5013,223.8772,183.9770,0,U,61733,999,580,0,-.237E-5,0
KOREASAT 6A,2024-206A,2026-06-05T19:12:03.766176,1.00268534,.0000998,0.0202,85.2997,352.4940,220.4354,0,U,61910,999,572,0,-.349E-5,0
OPTUS-X (ADS-01),2024-212A,2026-06-05T14:56:38.642208,1.00272009,.00018,0.0141,295.2307,176.0913,163.3065,0,U,62006,999,564,0,-.131E-5,0
GSAT-N2 (GSAT-20),2024-214A,2026-06-05T18:56:30.398208,1.00269175,.0002244,0.0203,225.6411,203.0937,177.6570,0,U,62028,999,578,0,-.7E-7,0
SXM-9,2024-234A,2026-06-05T14:49:24.887424,1.00273307,.0004615,0.0148,327.0689,349.7459,74.4362,0,U,62259,999,545,0,-.193E-5,0
TJS-12,2024-246A,2026-06-05T19:20:47.929056,1.00273510,.0002339,0.6962,298.0480,89.2895,303.6468,0,U,62374,999,545,0,-.218E-5,0
NUVIEW ALPHA,2024-252B,2026-06-05T13:07:17.732928,1.00271675,.0001044,0.0599,36.6867,13.5015,317.5344,0,U,62455,999,370,0,-.203E-5,0
AGILA,2024-252C,2026-06-05T17:39:38.429280,1.00271418,.0001083,0.0549,137.9150,316.1686,217.1429,0,U,62456,999,504,0,-.169E-5,0
NUVIEW BRAVO,2024-252D,2026-06-05T11:24:42.526080,1.00275393,.000195,0.0717,142.0605,332.9459,226.9737,0,U,62457,999,367,0,-.203E-5,0
THURAYA-4,2025-001A,2026-06-05T18:51:38.443104,1.00273949,.0000116,0.0256,63.6450,84.4857,73.3110,0,U,62483,999,406,0,.152E-5,0
SHIJIAN-25 (SJ-25),2025-002A,2026-06-05T18:36:08.011008,1.00277925,.0051707,5.0854,61.2332,172.8956,66.4068,0,U,62485,999,524,0,-.337E-5,0
TJS-14,2025-017A,2026-06-05T20:26:53.596608,1.00270436,.0000595,0.8090,294.7996,274.2656,10.3059,0,U,62804,999,515,0,.128E-5,0
SPAINSAT NG I,2025-021A,2026-06-05T15:21:59.264928,1.00271582,.0000363,0.0133,333.1060,165.3472,15.1280,0,U,62852,999,387,0,.164E-5,0
QZS-6 (MICHIBIKI-6),2025-023A,2026-06-05T17:22:07.216896,1.00275013,.00021,0.0237,38.1902,44.7320,162.2366,0,U,62876,999,483,0,-.221E-5,0
ZHONGXING-10R,2025-036A,2026-06-05T19:10:33.910176,1.00271479,.0003333,0.0489,252.5327,247.6456,152.2334,0,U,63075,999,484,0,-.339E-5,0
TJS-15,2025-045A,2026-06-05T18:38:25.365408,1.00269196,.0005498,0.2791,85.3589,299.3816,243.4602,0,U,63157,999,464,0,-.252E-5,0
TIANLIAN 2-04,2025-062A,2026-06-05T20:44:33.057600,1.00270697,.0031408,4.4046,274.6016,10.7242,0.1680,0,U,63361,999,449,0,-.124E-5,0
TJS-16,2025-064A,2026-06-05T17:54:45.681120,1.00272470,.0003711,1.0680,81.5215,293.6396,308.3037,0,U,63397,999,427,0,-.92E-6,0
TJS-17,2025-073A,2026-06-05T17:10:41.676960,1.00272445,.0002492,1.0338,82.7910,301.5057,292.0362,0,U,63524,999,417,0,-.57E-6,0
TIANLIAN 2-05,2025-084A,2026-06-05T13:36:51.042816,1.00272832,.0003589,4.4814,279.9668,145.2192,53.4368,0,U,63662,999,426,0,.136E-5,0
TJS-19,2025-097A,2026-06-05T17:36:38.716416,1.00270474,.0001915,3.3063,317.2446,232.6164,109.7582,0,U,63924,999,402,0,-.265E-5,0
CHINASAT 3B,2025-106A,2026-06-05T14:40:38.519616,1.00272768,.0002886,0.0295,97.2553,13.4241,170.8480,0,U,64062,999,394,0,-.32E-6,0
SXM-10,2025-122A,2026-06-05T16:23:16.353024,1.00271030,.0001792,0.0192,21.0679,356.2544,6.4417,0,U,64290,999,356,0,-.4E-7,0
COSMOS 2589,2025-131A,2026-06-05T18:38:44.522016,1.00268094,.0001407,0.0481,66.9960,89.5701,115.3039,0,U,64467,999,344,0,-.278E-5,0
CHINASAT 9C,2025-132A,2026-06-05T19:05:19.410720,1.00274449,.0002984,0.0327,261.5533,173.7554,197.4510,0,U,64470,999,403,0,-.235E-5,0
MTG-S1,2025-143A,2026-06-05T18:38:03.348096,1.00271627,.0001142,0.6135,336.4267,35.5129,158.3030,0,U,64723,999,330,0,-.19E-6,0
DROR 1,2025-148A,2026-06-05T18:37:55.859808,1.00271743,.0003009,0.0098,327.4225,63.8762,138.3817,0,U,64784,999,318,0,-.22E-6,0
SHIYAN-29,2025-196A,2026-06-05T14:28:13.308384,1.00258117,.0010744,28.8088,18.6830,170.7573,15.9304,0,U,65486,999,276,0,-.259E-5,0
NUSANTARA LIMA (NUSANTARA 5),2025-205A,2026-06-05T19:11:11.349024,1.00270497,.0000557,0.0369,140.8777,338.7299,175.2654,0,U,65588,999,260,0,-.345E-5,0
TJS-20,2025-238A,2026-06-05T12:06:06.856128,1.00272212,.0004817,5.4964,299.5969,154.3860,43.8610,0,U,66142,999,221,0,.35E-6,0
CMS-03 (GSAT-7R),2025-249B,2026-06-04T10:29:31.452576,1.00272551,.00028595,0.0345,261.3999,141.5029,81.3454,0,U,66311,999,222,0,-.65E-6,0
VIASAT-3 F2,2025-261A,2026-06-05T18:16:19.915104,1.00271100,.0000229,0.0429,148.4888,285.7649,15.0208,0,U,66454,999,267,0,-.221E-5,0
SHIJIAN-28 (SJ-28),2025-277A,2026-06-05T19:12:18.741024,1.00269802,.0000387,4.5685,272.3139,1.9415,24.9549,0,U,66549,999,204,0,-.349E-5,0
TJS-22,2025-290A,2026-06-04T21:48:47.245824,1.00271572,.0002017,1.5579,286.4286,333.7429,26.8172,0,U,66990,999,190,0,.6E-7,0
TJS-23,2025-306A,2026-06-05T15:12:31.114080,1.00272616,.0004998,5.6138,297.5506,163.6024,196.5125,0,U,67226,999,177,0,.27E-6,0
FENGYUN 4C,2025-312A,2026-06-05T00:27:41.571360,1.00270463,.00006365,0.0395,149.4658,17.9429,225.9691,0,U,67246,999,165,0,-.311E-5,0
SHIJIAN-29A (SJ-29A),2025-315A,2026-06-05T18:41:12.710112,1.00270166,.0003353,3.3681,95.3928,19.4654,132.9108,0,U,67302,999,150,0,-.55E-6,0
SHIJIAN-29B (SJ-29B),2025-315C,2026-06-05T18:41:12.774912,1.00270176,.0003575,3.3671,95.3839,21.9532,130.4760,0,U,67403,999,157,0,-.55E-6,0
ELEKTRO-L 5,2026-028A,2026-06-05T02:01:47.692128,1.00271294,.0001544,0.2741,307.5938,183.1267,229.2989,0,U,67756,999,113,0,-.85E-6,0
JAM-E JAM 1,2026-028B,2026-06-05T18:48:38.731104,1.00270765,.0000766,0.2850,298.9601,301.3657,329.9484,0,U,67757,999,100,0,.168E-5,0
ECHOSTAR 25,2026-045A,2026-06-05T16:25:01.184736,1.00268815,.0001301,0.0134,353.8978,93.0429,303.4354,0,U,68126,999,87,0,0,0
